[{"_id":{"$oid":"5ffbbe9e130b8a24d41239f9"},"landlord":{"$oid":"5ffbbe9e130b8a24d41239fa"},"address_line":"8306 Blaze Rapid","city":"North Skylamouth","state":"OR","zip":"48938-0380"},{"_id":{"$oid":"5ffbbe9e130b8a24d41239fb"},"landlord":{"$oid":"5ffbbe9e130b8a24d41239fc"},"address_line":"487 Schowalter Radial","city":"Staceyborough","state":"MN","zip":"58516-4625"},{"_id":{"$oid":"5ffbbe9e130b8a24d41239fd"},"landlord":{"$oid":"5ffbbe9e130b8a24d41239fe"},"address_line":"85518 Hoeger Drive","city":"Port Wainobury","state":"PA","zip":"28509"},{"_id":{"$oid":"5ffbbe9e130b8a24d41239ff"},"landlord":{"$oid":"5ffbbe9e130b8a24d4123a00"},"address_line":"00046 Parisian Keys","city":"Danielmouth","state":"MS","zip":"81806-6549"},{"_id":{"$oid":"5ffbbe9e130b8a24d4123a01"},"landlord":{"$oid":"5ffbbe9e130b8a24d4123a02"},"address_line":"53665 Tremblay Expressway","city":"Wiegandburgh","state":"WI","zip":"71467-3263"},{"_id":{"$oid":"5ffbbe9e130b8a24d4123a03"},"landlord":{"$oid":"5ffbbe9e130b8a24d4123a04"},"address_line":"60578 Witting Valleys","city":"Metzside","state":"OH","zip":"84761"},{"_id":{"$oid":"5ffbbe9e130b8a24d4123a05"},"landlord":{"$oid":"5ffbbe9e130b8a24d4123a06"},"address_line":"714 Franz Terrace","city":"Trantowmouth","state":"AK","zip":"04996-6471"},{"_id":{"$oid":"5ffbbe9e130b8a24d4123a07"},"landlord":{"$oid":"5ffbbe9e130b8a24d4123a08"},"address_line":"6106 Hane Harbor","city":"Mohrfort","state":"NC","zip":"80966-6573"},{"_id":{"$oid":"5ffbbe9e130b8a24d4123a09"},"landlord":{"$oid":"5ffbbe9e130b8a24d4123a0a"},"address_line":"9613 Elvera Turnpike","city":"South Isai","state":"OH","zip":"23175-5726"},{"_id":{"$oid":"5ffbbe9e130b8a24d4123a0b"},"landlord":{"$oid":"5ffbbe9e130b8a24d4123a0c"},"address_line":"109 Grant Plains","city":"Batzmouth","state":"NC","zip":"82688"},{"_id":{"$oid":"5ffbbe9e130b8a24d4123a0d"},"landlord":{"$oid":"5ffbbe9e130b8a24d4123a0e"},"address_line":"380 Juliet Highway","city":"O'Connerfurt","state":"NJ","zip":"23472"},{"_id":{"$oid":"5ffbbe9e130b8a24d4123a0f"},"landlord":{"$oid":"5ffbbe9e130b8a24d4123a10"},"address_line":"899 White Viaduct","city":"Isabellaborough","state":"MD","zip":"42062-3826"},{"_id":{"$oid":"5ffbbe9e130b8a24d4123a11"},"landlord":{"$oid":"5ffbbe9e130b8a24d4123a12"},"address_line":"695 Cristina Plains","city":"Port Jerel","state":"PA","zip":"74258"},{"_id":{"$oid":"5ffbbe9e130b8a24d4123a13"},"landlord":{"$oid":"5ffbbe9e130b8a24d4123a14"},"address_line":"206 Donna Junction","city":"Dayanabury","state":"WI","zip":"49353-0615"},{"_id":{"$oid":"5ffbbe9e130b8a24d4123a15"},"landlord":{"$oid":"5ffbbe9e130b8a24d4123a16"},"address_line":"11618 Batz Spur","city":"Deanshire","state":"UT","zip":"96639"},{"_id":{"$oid":"5ffbbe9e130b8a24d4123a17"},"landlord":{"$oid":"5ffbbe9e130b8a24d4123a18"},"address_line":"029 Walker Stravenue","city":"Hilllfort","state":"MT","zip":"04098-2499"},{"_id":{"$oid":"5ffbbe9e130b8a24d4123a19"},"landlord":{"$oid":"5ffbbe9e130b8a24d4123a1a"},"address_line":"5950 Fritz Mount","city":"Kacieport","state":"TX","zip":"83926"},{"_id":{"$oid":"5ffbbe9e130b8a24d4123a1b"},"landlord":{"$oid":"5ffbbe9e130b8a24d4123a1c"},"address_line":"77752 Orie Cliffs","city":"Leschmouth","state":"OR","zip":"55329-3039"},{"_id":{"$oid":"5ffbbe9e130b8a24d4123a1d"},"landlord":{"$oid":"5ffbbe9e130b8a24d4123a1e"},"address_line":"9832 Libby Field","city":"Daughertyport","state":"SD","zip":"21249-3995"},{"_id":{"$oid":"5ffbbe9e130b8a24d4123a1f"},"landlord":{"$oid":"5ffbbe9e130b8a24d4123a20"},"address_line":"863 Loma Lane","city":"South Eleanore","state":"MA","zip":"29745"},{"_id":{"$oid":"5ffbbe9e130b8a24d4123a21"},"landlord":{"$oid":"5ffbbe9e130b8a24d4123a22"},"address_line":"663 Bechtelar Roads","city":"Port Wallace","state":"WA","zip":"54952"},{"_id":{"$oid":"5ffbbe9e130b8a24d4123a23"},"landlord":{"$oid":"5ffbbe9e130b8a24d4123a24"},"address_line":"623 Eli Mews","city":"Lake Reece","state":"SD","zip":"40305"},{"_id":{"$oid":"5ffbbe9e130b8a24d4123a25"},"landlord":{"$oid":"5ffbbe9e130b8a24d4123a26"},"address_line":"03397 O'Connell Court","city":"Julienland","state":"LA","zip":"12240"},{"_id":{"$oid":"5ffbbe9e130b8a24d4123a27"},"landlord":{"$oid":"5ffbbe9e130b8a24d4123a28"},"address_line":"7160 Reichel Loaf","city":"Berniceland","state":"WA","zip":"81693-7494"},{"_id":{"$oid":"5ffbbe9e130b8a24d4123a29"},"landlord":{"$oid":"5ffbbe9e130b8a24d4123a2a"},"address_line":"968 Dooley Heights","city":"Watsonhaven","state":"MS","zip":"56777-3092"},{"_id":{"$oid":"5ffbbe9e130b8a24d4123a2b"},"landlord":{"$oid":"5ffbbe9e130b8a24d4123a2c"},"address_line":"051 Ross Track","city":"Lake Kiarraland","state":"WV","zip":"79079-4796"},{"_id":{"$oid":"5ffbbe9e130b8a24d4123a2d"},"landlord":{"$oid":"5ffbbe9e130b8a24d4123a2e"},"address_line":"33991 Stephan Station","city":"Andersonborough","state":"ME","zip":"29227"},{"_id":{"$oid":"5ffbbe9e130b8a24d4123a2f"},"landlord":{"$oid":"5ffbbe9e130b8a24d4123a30"},"address_line":"774 Goyette Plaza","city":"Shadmouth","state":"IL","zip":"46131-7325"},{"_id":{"$oid":"5ffbbe9e130b8a24d4123a31"},"landlord":{"$oid":"5ffbbe9e130b8a24d4123a32"},"address_line":"3920 Sterling Trafficway","city":"Lake Karinafurt","state":"NY","zip":"22966"},{"_id":{"$oid":"5ffbbe9e130b8a24d4123a33"},"landlord":{"$oid":"5ffbbe9e130b8a24d4123a34"},"address_line":"207 Mann Manor","city":"Osvaldoton","state":"WV","zip":"22963-7252"},{"_id":{"$oid":"5ffbbe9e130b8a24d4123a35"},"landlord":{"$oid":"5ffbbe9e130b8a24d4123a36"},"address_line":"4818 Anabel Light","city":"South Hadley","state":"ND","zip":"17015-5392"},{"_id":{"$oid":"5ffbbe9e130b8a24d4123a37"},"landlord":{"$oid":"5ffbbe9e130b8a24d4123a38"},"address_line":"38385 Bashirian Mill","city":"East Calistaside","state":"ME","zip":"43163"},{"_id":{"$oid":"5ffbbe9e130b8a24d4123a39"},"landlord":{"$oid":"5ffbbe9e130b8a24d4123a3a"},"address_line":"39014 Mosciski Mountains","city":"Feeneyton","state":"MS","zip":"42786"},{"_id":{"$oid":"5ffbbe9e130b8a24d4123a3b"},"landlord":{"$oid":"5ffbbe9e130b8a24d4123a3c"},"address_line":"4868 Leffler Locks","city":"New Donna","state":"GA","zip":"73689"},{"_id":{"$oid":"5ffbbe9e130b8a24d4123a3d"},"landlord":{"$oid":"5ffbbe9e130b8a24d4123a3e"},"address_line":"2948 Lea Turnpike","city":"Reingerside","state":"MA","zip":"66962-9839"},{"_id":{"$oid":"5ffbbe9e130b8a24d4123a3f"},"landlord":{"$oid":"5ffbbe9e130b8a24d4123a40"},"address_line":"00271 Violette Park","city":"New Zoieview","state":"MD","zip":"96144-9895"},{"_id":{"$oid":"5ffbbe9e130b8a24d4123a41"},"landlord":{"$oid":"5ffbbe9e130b8a24d4123a42"},"address_line":"4752 Ignacio Parkways","city":"Clementinamouth","state":"CO","zip":"18095-5843"},{"_id":{"$oid":"5ffbbe9e130b8a24d4123a43"},"landlord":{"$oid":"5ffbbe9e130b8a24d4123a44"},"address_line":"024 Emilie Highway","city":"New Ramon","state":"AL","zip":"98571-4162"},{"_id":{"$oid":"5ffbbe9e130b8a24d4123a45"},"landlord":{"$oid":"5ffbbe9e130b8a24d4123a46"},"address_line":"19815 Schoen Underpass","city":"Lake Jovanburgh","state":"NC","zip":"84783"},{"_id":{"$oid":"5ffbbe9e130b8a24d4123a47"},"landlord":{"$oid":"5ffbbe9e130b8a24d4123a48"},"address_line":"3943 Dallas Bridge","city":"Langoshfurt","state":"SC","zip":"14537"}]